[{"OBJECT_NAME":"LEMUR-2-ARIANNA","OBJECT_ID":"2025-009CU","EPOCH":"2026-03-04T03:22:09.760800","MEAN_MOTION":15.00758113,"ECCENTRICITY":0.0004413,"INCLINATION":97.7023,"RA_OF_ASC_NODE":145.4946,"ARG_OF_PERICENTER":158.0965,"MEAN_ANOMALY":202.0448,"EPHEMERIS_TYPE":0,"CLASSIFICATION_TYPE":"U","NORAD_CAT_ID":62699,"ELEMENT_SET_NO":999,"REV_AT_EPOCH":6179,"BSTAR":0.00099345,"MEAN_MOTION_DOT":0.00012559,"MEAN_MOTION_DDOT":0},{"OBJECT_NAME":"LEMUR-2-ALISIA","OBJECT_ID":"2025-009DB","EPOCH":"2026-03-04T04:55:05.140704","MEAN_MOTION":15.01025648,"ECCENTRICITY":0.0006339,"INCLINATION":97.7071,"RA_OF_ASC_NODE":146.21,"ARG_OF_PERICENTER":172.4092,"MEAN_ANOMALY":187.7229,"EPHEMERIS_TYPE":0,"CLASSIFICATION_TYPE":"U","NORAD_CAT_ID":62706,"ELEMENT_SET_NO":999,"REV_AT_EPOCH":8440,"BSTAR":0.00099818,"MEAN_MOTION_DOT":0.00012711,"MEAN_MOTION_DDOT":0},{"OBJECT_NAME":"LEMUR-2-ROUNDTRIPPER","OBJECT_ID":"2025-009DG","EPOCH":"2026-03-04T03:58:12.155808","MEAN_MOTION":15.0194309,"ECCENTRICITY":0.0004681,"INCLINATION":97.7309,"RA_OF_ASC_NODE":146.1283,"ARG_OF_PERICENTER":140.2534,"MEAN_ANOMALY":219.9034,"EPHEMERIS_TYPE":0,"CLASSIFICATION_TYPE":"U","NORAD_CAT_ID":62711,"ELEMENT_SET_NO":999,"REV_AT_EPOCH":6185,"BSTAR":0.0010747,"MEAN_MOTION_DOT":0.00014023,"MEAN_MOTION_DDOT":0},{"OBJECT_NAME":"LEMUR-2-MYNAMEISJEFF","OBJECT_ID":"2025-009DH","EPOCH":"2026-03-04T03:56:04.909344","MEAN_MOTION":15.01930555,"ECCENTRICITY":0.0003708,"INCLINATION":97.7357,"RA_OF_ASC_NODE":146.4457,"ARG_OF_PERICENTER":168.0458,"MEAN_ANOMALY":192.0855,"EPHEMERIS_TYPE":0,"CLASSIFICATION_TYPE":"U","NORAD_CAT_ID":62712,"ELEMENT_SET_NO":999,"REV_AT_EPOCH":6185,"BSTAR":0.001074,"MEAN_MOTION_DOT":0.00014009,"MEAN_MOTION_DDOT":0},{"OBJECT_NAME":"LEMUR-2-LEIA-PHILIP","OBJECT_ID":"2025-052AN","EPOCH":"2026-03-04T03:10:59.512800","MEAN_MOTION":14.96552864,"ECCENTRICITY":0.0002703,"INCLINATION":97.6973,"RA_OF_ASC_NODE":316.82,"ARG_OF_PERICENTER":194.1349,"MEAN_ANOMALY":165.9797,"EPHEMERIS_TYPE":0,"CLASSIFICATION_TYPE":"U","NORAD_CAT_ID":63246,"ELEMENT_SET_NO":999,"REV_AT_EPOCH":5295,"BSTAR":0.00081548,"MEAN_MOTION_DOT":9.227e-5,"MEAN_MOTION_DDOT":0},{"OBJECT_NAME":"LEMUR-2-LIA-MARTIN","OBJECT_ID":"2025-052AQ","EPOCH":"2026-03-03T22:53:53.869344","MEAN_MOTION":14.9671653,"ECCENTRICITY":0.0003031,"INCLINATION":97.7018,"RA_OF_ASC_NODE":317.0016,"ARG_OF_PERICENTER":159.4938,"MEAN_ANOMALY":200.6405,"EPHEMERIS_TYPE":0,"CLASSIFICATION_TYPE":"U","NORAD_CAT_ID":63248,"ELEMENT_SET_NO":999,"REV_AT_EPOCH":5293,"BSTAR":0.00072435,"MEAN_MOTION_DOT":8.223e-5,"MEAN_MOTION_DDOT":0},{"OBJECT_NAME":"LEMUR-2-DELOITTE-1","OBJECT_ID":"2025-052BB","EPOCH":"2026-03-03T15:43:48.944640","MEAN_MOTION":14.96714805,"ECCENTRICITY":0.0003255,"INCLINATION":97.7056,"RA_OF_ASC_NODE":317.0188,"ARG_OF_PERICENTER":91.2402,"MEAN_ANOMALY":268.9192,"EPHEMERIS_TYPE":0,"CLASSIFICATION_TYPE":"U","NORAD_CAT_ID":63259,"ELEMENT_SET_NO":999,"REV_AT_EPOCH":5290,"BSTAR":0.00062882,"MEAN_MOTION_DOT":7.13e-5,"MEAN_MOTION_DDOT":0},{"OBJECT_NAME":"LEMUR-2-EMERSONROSE","OBJECT_ID":"2025-052BD","EPOCH":"2026-03-03T22:25:45.365376","MEAN_MOTION":14.98143985,"ECCENTRICITY":0.0003335,"INCLINATION":97.7043,"RA_OF_ASC_NODE":317.6418,"ARG_OF_PERICENTER":64.272,"MEAN_ANOMALY":295.8847,"EPHEMERIS_TYPE":0,"CLASSIFICATION_TYPE":"U","NORAD_CAT_ID":63261,"ELEMENT_SET_NO":999,"REV_AT_EPOCH":5297,"BSTAR":0.00074356,"MEAN_MOTION_DOT":8.761e-5,"MEAN_MOTION_DDOT":0},{"OBJECT_NAME":"LEMUR-2-MARACHE-FRAN","OBJECT_ID":"2025-052BE","EPOCH":"2026-03-04T04:01:39.527040","MEAN_MOTION":14.98796669,"ECCENTRICITY":0.0002388,"INCLINATION":97.7003,"RA_OF_ASC_NODE":318.0616,"ARG_OF_PERICENTER":42.7185,"MEAN_ANOMALY":317.4223,"EPHEMERIS_TYPE":0,"CLASSIFICATION_TYPE":"U","NORAD_CAT_ID":63262,"ELEMENT_SET_NO":999,"REV_AT_EPOCH":5302,"BSTAR":0.00086561,"MEAN_MOTION_DOT":0.00010385,"MEAN_MOTION_DDOT":0},{"OBJECT_NAME":"LEMUR-2-THEFALCONER","OBJECT_ID":"2025-052BG","EPOCH":"2026-03-03T22:24:23.675904","MEAN_MOTION":14.96429225,"ECCENTRICITY":0.0002782,"INCLINATION":97.6998,"RA_OF_ASC_NODE":317.0272,"ARG_OF_PERICENTER":35.2815,"MEAN_ANOMALY":324.859,"EPHEMERIS_TYPE":0,"CLASSIFICATION_TYPE":"U","NORAD_CAT_ID":63264,"ELEMENT_SET_NO":999,"REV_AT_EPOCH":5294,"BSTAR":0.00057898,"MEAN_MOTION_DOT":6.511e-5,"MEAN_MOTION_DDOT":0},{"OBJECT_NAME":"LEMUR-2-UNTITLED-SC","OBJECT_ID":"2025-061A","EPOCH":"2026-03-03T20:56:15.738432","MEAN_MOTION":15.12620173,"ECCENTRICITY":0.0017252,"INCLINATION":97.5548,"RA_OF_ASC_NODE":39.1256,"ARG_OF_PERICENTER":268.6307,"MEAN_ANOMALY":91.2947,"EPHEMERIS_TYPE":0,"CLASSIFICATION_TYPE":"U","NORAD_CAT_ID":63351,"ELEMENT_SET_NO":999,"REV_AT_EPOCH":5166,"BSTAR":0.00042125,"MEAN_MOTION_DOT":7.32e-5,"MEAN_MOTION_DDOT":0},{"OBJECT_NAME":"LEMUR-2-ESPERANZA","OBJECT_ID":"2025-061B","EPOCH":"2026-03-03T23:42:24.388992","MEAN_MOTION":15.12699078,"ECCENTRICITY":0.0016725,"INCLINATION":97.5555,"RA_OF_ASC_NODE":39.3102,"ARG_OF_PERICENTER":267.4279,"MEAN_ANOMALY":92.5037,"EPHEMERIS_TYPE":0,"CLASSIFICATION_TYPE":"U","NORAD_CAT_ID":63352,"ELEMENT_SET_NO":999,"REV_AT_EPOCH":5168,"BSTAR":0.00037482,"MEAN_MOTION_DOT":6.518e-5,"MEAN_MOTION_DDOT":0},{"OBJECT_NAME":"LEMUR-2-KREMPEL-BRO2","OBJECT_ID":"2025-061C","EPOCH":"2026-03-03T23:28:42.847680","MEAN_MOTION":15.13102351,"ECCENTRICITY":0.0017659,"INCLINATION":97.5599,"RA_OF_ASC_NODE":39.7004,"ARG_OF_PERICENTER":259.3914,"MEAN_ANOMALY":100.5328,"EPHEMERIS_TYPE":0,"CLASSIFICATION_TYPE":"U","NORAD_CAT_ID":63353,"ELEMENT_SET_NO":999,"REV_AT_EPOCH":5169,"BSTAR":0.00037268,"MEAN_MOTION_DOT":6.557e-5,"MEAN_MOTION_DDOT":0},{"OBJECT_NAME":"LEMUR-2-THERMORAPTOR","OBJECT_ID":"2025-061D","EPOCH":"2026-03-03T23:09:52.498944","MEAN_MOTION":15.13178658,"ECCENTRICITY":0.0017484,"INCLINATION":97.5606,"RA_OF_ASC_NODE":39.7444,"ARG_OF_PERICENTER":258.2994,"MEAN_ANOMALY":101.6275,"EPHEMERIS_TYPE":0,"CLASSIFICATION_TYPE":"U","NORAD_CAT_ID":63354,"ELEMENT_SET_NO":999,"REV_AT_EPOCH":5169,"BSTAR":0.00039347,"MEAN_MOTION_DOT":6.941e-5,"MEAN_MOTION_DDOT":0},{"OBJECT_NAME":"LEMUR-2-NEUROSPICY","OBJECT_ID":"2025-061E","EPOCH":"2026-03-03T19:30:02.224800","MEAN_MOTION":15.1328997,"ECCENTRICITY":0.00153084,"INCLINATION":97.553,"RA_OF_ASC_NODE":39.3014,"ARG_OF_PERICENTER":263.163,"MEAN_ANOMALY":96.786,"EPHEMERIS_TYPE":0,"CLASSIFICATION_TYPE":"U","NORAD_CAT_ID":63355,"ELEMENT_SET_NO":999,"REV_AT_EPOCH":5167,"BSTAR":0.00050175988,"MEAN_MOTION_DOT":8.892e-5,"MEAN_MOTION_DDOT":0},{"OBJECT_NAME":"LEMUR-2-TILLINFINITY","OBJECT_ID":"2025-061F","EPOCH":"2026-03-03T19:44:04.712928","MEAN_MOTION":15.13863667,"ECCENTRICITY":0.00165882,"INCLINATION":97.5516,"RA_OF_ASC_NODE":39.5281,"ARG_OF_PERICENTER":250.0405,"MEAN_ANOMALY":109.904,"EPHEMERIS_TYPE":0,"CLASSIFICATION_TYPE":"U","NORAD_CAT_ID":63356,"ELEMENT_SET_NO":999,"REV_AT_EPOCH":5169,"BSTAR":0.00040646393,"MEAN_MOTION_DOT":7.31e-5,"MEAN_MOTION_DDOT":0}]
