LEMUR-2-ARIANNA         
1 62699U 25009CU  26063.14039075  .00012559  00000+0  99345-3 0  9998
2 62699  97.7023 145.4946 0004413 158.0965 202.0448 15.00758113 61795
LEMUR-2-ALISIA          
1 62706U 25009DB  26063.20492061  .00012711  00000+0  99818-3 0  9997
2 62706  97.7071 146.2100 0006339 172.4092 187.7229 15.01025648 84408
LEMUR-2-ROUNDTRIPPER    
1 62711U 25009DG  26063.16541847  .00014023  00000+0  10747-2 0  9996
2 62711  97.7309 146.1283 0004681 140.2534 219.9034 15.01943090 61857
LEMUR-2-MYNAMEISJEFF    
1 62712U 25009DH  26063.16394571  .00014009  00000+0  10740-2 0  9994
2 62712  97.7357 146.4457 0003708 168.0458 192.0855 15.01930555 61853
LEMUR-2-LEIA-PHILIP     
1 63246U 25052AN  26063.13263325  .00009227  00000+0  81548-3 0  9995
2 63246  97.6973 316.8200 0002703 194.1349 165.9797 14.96552864 52952
LEMUR-2-LIA-MARTIN      
1 63248U 25052AQ  26062.95409571  .00008223  00000+0  72435-3 0  9991
2 63248  97.7018 317.0016 0003031 159.4938 200.6405 14.96716530 52939
LEMUR-2-DELOITTE-1      
1 63259U 25052BB  26062.65542760  .00007130  00000+0  62882-3 0  9999
2 63259  97.7056 317.0188 0003255  91.2402 268.9192 14.96714805 52900
LEMUR-2-EMERSONROSE     
1 63261U 25052BD  26062.93455284  .00008761  00000+0  74356-3 0  9997
2 63261  97.7043 317.6418 0003335  64.2720 295.8847 14.98143985 52973
LEMUR-2-MARACHE-FRAN    
1 63262U 25052BE  26063.16781860  .00010385  00000+0  86561-3 0  9992
2 63262  97.7003 318.0616 0002388  42.7185 317.4223 14.98796669 53027
LEMUR-2-THEFALCONER     
1 63264U 25052BG  26062.93360736  .00006511  00000+0  57898-3 0  9990
2 63264  97.6998 317.0272 0002782  35.2815 324.8590 14.96429225 52941
LEMUR-2-UNTITLED-SC     
1 63351U 25061A   26062.87240438  .00007320  00000+0  42125-3 0  9992
2 63351  97.5548  39.1256 0017252 268.6307  91.2947 15.12620173 51661
LEMUR-2-ESPERANZA       
1 63352U 25061B   26062.98778228  .00006518  00000+0  37482-3 0  9996
2 63352  97.5555  39.3102 0016725 267.4279  92.5037 15.12699078 51687
LEMUR-2-KREMPEL-BRO2    
1 63353U 25061C   26062.97827370  .00006557  00000+0  37268-3 0  9994
2 63353  97.5599  39.7004 0017659 259.3914 100.5328 15.13102351 51692
LEMUR-2-THERMORAPTOR    
1 63354U 25061D   26062.96519096  .00006941  00000+0  39347-3 0  9994
2 63354  97.5606  39.7444 0017484 258.2994 101.6275 15.13178658 51698
LEMUR-2-NEUROSPICY      
1 63355U 25061E   26062.81252575  .00008892  00000+0  50176-3 0  9995
2 63355  97.5530  39.3014 0015308 263.1630  96.7860 15.13289970 51671
LEMUR-2-TILLINFINITY    
1 63356U 25061F   26062.82227677  .00007310  00000+0  40646-3 0  9997
2 63356  97.5516  39.5281 0016588 250.0405 109.9040 15.13863667 51690
